{
  "type": "FeatureCollection",
  "features": [
    {
      "type": "Feature",
      "properties": {
        "norad_id": 24946,
        "name": "IRIDIUM 33",
        "group": "iridium-33-debris",
        "lat": 21.13843578442662,
        "lon": -111.74305226939423,
        "alt_km": 772.1710067755321,
        "timestamp": "2025-12-09T07:41:33.595256+00:00",
        "meta_object_name": "IRIDIUM 33",
        "meta_object_id": "1997-051C",
        "meta_epoch": "2025-12-08T19:14:25.821600",
        "meta_mean_motion": 14.35033415,
        "meta_eccentricity": 0.00065999,
        "meta_inclination": 86.387,
        "meta_ra_of_asc_node": 69.8745,
        "meta_arg_of_pericenter": 215.0125,
        "meta_mean_anomaly": 145.0639,
        "meta_ephemeris_type": 0,
        "meta_classification_type": "U",
        "meta_norad_cat_id": 24946,
        "meta_element_set_no": 999,
        "meta_rev_at_epoch": 47778,
        "meta_bstar": 0.00023498518,
        "meta_mean_motion_dot": 6.89e-06,
        "meta_mean_motion_ddot": 0,
        "tle_line1": "1 24946U 97051C   25342.80168775  .00000689  00000+0  23499-3 0  9997",
        "tle_line2": "2 24946  86.3870  69.8745 0006599 215.0125 145.0639 14.35033415477783"
      },
      "geometry": {
        "type": "Point",
        "coordinates": [
          -111.74305226939423,
          21.13843578442662
        ]
      }
    },
    {
      "type": "Feature",
      "properties": {
        "norad_id": 33773,
        "name": "IRIDIUM 33 DEB",
        "group": "iridium-33-debris",
        "lat": 14.557127539887805,
        "lon": 62.97482076335479,
        "alt_km": 755.5587841382039,
        "timestamp": "2025-12-09T07:41:33.595301+00:00",
        "meta_object_name": "IRIDIUM 33 DEB",
        "meta_object_id": "1997-051L",
        "meta_epoch": "2025-12-08T18:18:47.834496",
        "meta_mean_motion": 14.43244853,
        "meta_eccentricity": 0.00121415,
        "meta_inclination": 86.4015,
        "meta_ra_of_asc_node": 62.2746,
        "meta_arg_of_pericenter": 158.1711,
        "meta_mean_anomaly": 202.001,
        "meta_ephemeris_type": 0,
        "meta_classification_type": "U",
        "meta_norad_cat_id": 33773,
        "meta_element_set_no": 999,
        "meta_rev_at_epoch": 88290,
        "meta_bstar": 0.00061199429,
        "meta_mean_motion_dot": 2.08e-05,
        "meta_mean_motion_ddot": 0,
        "tle_line1": "1 33773U 97051L   25342.76305364  .00002080  00000+0  61199-3 0  9993",
        "tle_line2": "2 33773  86.4015  62.2746 0012141 158.1711 202.0010 14.43244853882909"
      },
      "geometry": {
        "type": "Point",
        "coordinates": [
          62.97482076335479,
          14.557127539887805
        ]
      }
    },
    {
      "type": "Feature",
      "properties": {
        "norad_id": 33775,
        "name": "IRIDIUM 33 DEB",
        "group": "iridium-33-debris",
        "lat": 59.58923384670473,
        "lon": -135.20581716297704,
        "alt_km": 741.0202408916248,
        "timestamp": "2025-12-09T07:41:33.595318+00:00",
        "meta_object_name": "IRIDIUM 33 DEB",
        "meta_object_id": "1997-051N",
        "meta_epoch": "2025-12-08T16:41:58.751232",
        "meta_mean_motion": 14.41456363,
        "meta_eccentricity": 0.00138218,
        "meta_inclination": 86.3641,
        "meta_ra_of_asc_node": 51.2799,
        "meta_arg_of_pericenter": 167.2208,
        "meta_mean_anomaly": 313.3422,
        "meta_ephemeris_type": 0,
        "meta_classification_type": "U",
        "meta_norad_cat_id": 33775,
        "meta_element_set_no": 999,
        "meta_rev_at_epoch": 88082,
        "meta_bstar": 0.00063945764,
        "meta_mean_motion_dot": 2.095e-05,
        "meta_mean_motion_ddot": 0,
        "tle_line1": "1 33775U 97051N   25342.69581888  .00002095  00000+0  63946-3 0  9992",
        "tle_line2": "2 33775  86.3641  51.2799 0013821 167.2208 313.3422 14.41456363880820"
      },
      "geometry": {
        "type": "Point",
        "coordinates": [
          -135.20581716297704,
          59.58923384670473
        ]
      }
    },
    {
      "type": "Feature",
      "properties": {
        "norad_id": 33776,
        "name": "IRIDIUM 33 DEB",
        "group": "iridium-33-debris",
        "lat": 29.514962050967593,
        "lon": 84.25191913042184,
        "alt_km": 772.8121491862448,
        "timestamp": "2025-12-09T07:41:33.595331+00:00",
        "meta_object_name": "IRIDIUM 33 DEB",
        "meta_object_id": "1997-051P",
        "meta_epoch": "2025-12-08T20:25:17.631264",
        "meta_mean_motion": 14.38225708,
        "meta_eccentricity": 0.00138791,
        "meta_inclination": 86.4038,
        "meta_ra_of_asc_node": 82.4088,
        "meta_arg_of_pericenter": 203.6045,
        "meta_mean_anomaly": 276.0774,
        "meta_ephemeris_type": 0,
        "meta_classification_type": "U",
        "meta_norad_cat_id": 33776,
        "meta_element_set_no": 999,
        "meta_rev_at_epoch": 88026,
        "meta_bstar": 0.00064814674,
        "meta_mean_motion_dot": 1.989e-05,
        "meta_mean_motion_ddot": 0,
        "tle_line1": "1 33776U 97051P   25342.85089851  .00001989  00000+0  64815-3 0  9991",
        "tle_line2": "2 33776  86.4038  82.4088 0013879 203.6045 276.0774 14.38225708880262"
      },
      "geometry": {
        "type": "Point",
        "coordinates": [
          84.25191913042184,
          29.514962050967593
        ]
      }
    },
    {
      "type": "Feature",
      "properties": {
        "norad_id": 33777,
        "name": "IRIDIUM 33 DEB",
        "group": "iridium-33-debris",
        "lat": -35.999583298815054,
        "lon": 34.05331902713737,
        "alt_km": 711.988267604047,
        "timestamp": "2025-12-09T07:41:33.595352+00:00",
        "meta_object_name": "IRIDIUM 33 DEB",
        "meta_object_id": "1997-051Q",
        "meta_epoch": "2025-12-08T15:21:32.710752",
        "meta_mean_motion": 14.55568461,
        "meta_eccentricity": 0.0005068,
        "meta_inclination": 86.3783,
        "meta_ra_of_asc_node": 36.9867,
        "meta_arg_of_pericenter": 268.4261,
        "meta_mean_anomaly": 91.6366,
        "meta_ephemeris_type": 0,
        "meta_classification_type": "U",
        "meta_norad_cat_id": 33777,
        "meta_element_set_no": 999,
        "meta_rev_at_epoch": 88474,
        "meta_bstar": 0.0014514,
        "meta_mean_motion_dot": 6.347e-05,
        "meta_mean_motion_ddot": 0,
        "tle_line1": "1 33777U 97051Q   25342.63996193  .00006347  00000+0  14514-2 0  9997",
        "tle_line2": "2 33777  86.3783  36.9867 0005068 268.4261  91.6366 14.55568461884748"
      },
      "geometry": {
        "type": "Point",
        "coordinates": [
          34.05331902713737,
          -35.999583298815054
        ]
      }
    },
    {
      "type": "Feature",
      "properties": {
        "norad_id": 33850,
        "name": "IRIDIUM 33 DEB",
        "group": "iridium-33-debris",
        "lat": 85.44906663276265,
        "lon": 158.16146501728568,
        "alt_km": 742.330739220999,
        "timestamp": "2025-12-09T07:41:33.595365+00:00",
        "meta_object_name": "IRIDIUM 33 DEB",
        "meta_object_id": "1997-051T",
        "meta_epoch": "2025-12-08T23:27:49.159584",
        "meta_mean_motion": 14.4213449,
        "meta_eccentricity": 0.00118736,
        "meta_inclination": 86.3419,
        "meta_ra_of_asc_node": 31.7972,
        "meta_arg_of_pericenter": 172.5952,
        "meta_mean_anomaly": 301.2702,
        "meta_ephemeris_type": 0,
        "meta_classification_type": "U",
        "meta_norad_cat_id": 33850,
        "meta_element_set_no": 999,
        "meta_rev_at_epoch": 88098,
        "meta_bstar": 0.00044747922,
        "meta_mean_motion_dot": 1.492e-05,
        "meta_mean_motion_ddot": 0,
        "tle_line1": "1 33850U 97051T   25342.97765231  .00001492  00000+0  44748-3 0  9992",
        "tle_line2": "2 33850  86.3419  31.7972 0011873 172.5952 301.2702 14.42134490880982"
      },
      "geometry": {
        "type": "Point",
        "coordinates": [
          158.16146501728568,
          85.44906663276265
        ]
      }
    },
    {
      "type": "Feature",
      "properties": {
        "norad_id": 33853,
        "name": "IRIDIUM 33 DEB",
        "group": "iridium-33-debris",
        "lat": -72.51188420758945,
        "lon": -21.52124288947151,
        "alt_km": 788.9976608883744,
        "timestamp": "2025-12-09T07:41:33.595377+00:00",
        "meta_object_name": "IRIDIUM 33 DEB",
        "meta_object_id": "1997-051W",
        "meta_epoch": "2025-12-08T12:11:22.986816",
        "meta_mean_motion": 13.99022624,
        "meta_eccentricity": 0.02069228,
        "meta_inclination": 85.9997,
        "meta_ra_of_asc_node": 351.667,
        "meta_arg_of_pericenter": 248.9226,
        "meta_mean_anomaly": 266.3481,
        "meta_ephemeris_type": 0,
        "meta_classification_type": "U",
        "meta_norad_cat_id": 33853,
        "meta_element_set_no": 999,
        "meta_rev_at_epoch": 85286,
        "meta_bstar": 0.0029663214,
        "meta_mean_motion_dot": 5.167e-05,
        "meta_mean_motion_ddot": 0,
        "tle_line1": "1 33853U 97051W   25342.50790494  .00005167  00000+0  29663-2 0  9994",
        "tle_line2": "2 33853  85.9997 351.6670 0206922 248.9226 266.3481 13.99022624852860"
      },
      "geometry": {
        "type": "Point",
        "coordinates": [
          -21.52124288947151,
          -72.51188420758945
        ]
      }
    }
  ]
}